STARLINK-2319_new
1 17790C 21018D   21326.17377289  .00006889  00000-0  46142-3 0  3262
2 17790  53.0558  62.9633 0001696  62.6536 354.9820 15.06402441    13
STARLINK-2319_old
1 27790C 21018D   21325.14325685  .00006685  00000-0  44794-3 0  3255
2 27790  53.0556  67.5891 0001729  62.9695 163.0558 15.06388587    15
